[
    {
        "Altitude(m)": 622200.0774184555,
        "Argument of Periapsis(deg)": 0.0,
        "Eccentricity": 0.0,
        "Inclination(deg)": 60.0,
        "Latitude(deg)": -52.16245602807867,
        "Longitude(deg)": 117.36071075077024,
        "Mean Anomaly(deg)": -65.45450000000002,
        "RAAN(deg)": 265.0,
        "Satellite Name": "Test1 1184",
        "Satellite Number": 1184,
        "Semi-Major Axis(m)": 6980739.136638005,
        "Time(s)": 0
    },
    {
        "Altitude(m)": 622058.2452361351,
        "Argument of Periapsis(deg)": 0.00010418945913296404,
        "Eccentricity": 0.0,
        "Inclination(deg)": 60.0,
        "Latitude(deg)": -51.7992061195486,
        "Longitude(deg)": 118.12876778679167,
        "Mean Anomaly(deg)": -64.83439385453818,
        "RAAN(deg)": 264.99957995086027,
        "Satellite Name": "Test1 1184",
        "Satellite Number": 1184,
        "Semi-Major Axis(m)": 6980739.136638005,
        "Time(s)": 10
    }
]